O3B FM5                 
1 39188U 13031A   22325.59118992 -.00000008  00000+0  00000+0 0  9992
2 39188   0.0659  11.6579 0002776 233.9676 114.3534  5.00115324171829
O3B FM4                 
1 39189U 13031B   22325.24736914 -.00000008  00000+0  00000+0 0  9995
2 39189   0.0440 353.2063 0002726 251.8976 114.8755  5.00115837171827
O3B FM2                 
1 39190U 13031C   22325.53873368 -.00000008  00000+0  00000+0 0  9994
2 39190   0.0416 347.0150 0002731 257.0184 115.9462  5.00115094171883
O3B PFM                 
1 39191U 13031D   22325.76487732 -.00000008  00000+0  00000+0 0  9996
2 39191   0.0575   8.5226 0002730 232.8898 118.5680  5.00115744171451
O3B FM3                 
1 40079U 14038A   22326.01957985 -.00000008  00000+0  00000+0 0  9992
2 40079   0.0498 359.4297 0004588 217.2537 143.2930  5.00115295152934
O3B FM7                 
1 40080U 14038B   22326.16553705 -.00000008  00000+0  00000+0 0  9992
2 40080   0.0499 354.2362 0002561 289.2390  76.5041  5.00115508152970
O3B FM6                 
1 40081U 14038C   22325.39236636 -.00000008  00000+0  00000+0 0  9998
2 40081   0.0488 359.4533 0002789 241.7608 118.7656  5.00115304152608
O3B FM8                 
1 40082U 14038D   22325.64613974 -.00000008  00000+0  00000+0 0  9991
2 40082   0.0458 357.9012 0002669 241.3651 120.7152  5.00115679152735
O3B FM10                
1 40348U 14083A   22325.67226450 -.00000008  00000+0  00000+0 0  9998
2 40348   0.0524   8.9729 0002705 232.5188 118.4889  5.00115133144681
O3B FM11                
1 40349U 14083B   22325.88558044 -.00000008  00000+0  00000+0 0  9999
2 40349   0.0559   5.6556 0002875 249.8866 104.4337  5.00115363144862
O3B FM12                
1 40350U 14083C   22325.51302294 -.00000008  00000+0  00000+0 0  9995
2 40350   0.0550   5.5233 0002886 237.5893 116.8657  5.00115254144706
O3B FM9                 
1 40351U 14083D   22325.93958322 -.00000008  00000+0  00000+0 0  9991
2 40351   0.0570   5.1541 0002703 237.8711 116.9550  5.00116081144877
DIAMOND RED             
1 42783U 17036U   22326.06872476  .00010691  00000+0  36405-3 0  9993
2 42783  97.1817   1.5613 0011305 122.8395 237.3936 15.30513174301024
DIAMOND GREEN           
1 42785U 17036W   22326.06798469  .00011347  00000+0  38516-3 0  9998
2 42785  97.1817   1.6285 0011101 124.3542 235.8752 15.30602637301018
DIAMOND BLUE            
1 42786U 17036X   22326.32904533  .00009069  00000+0  30868-3 0  9999
2 42786  97.1819   1.8728 0011168 123.5146 236.7164 15.30574255301054
LEO VANTAGE 1           
1 43113U 18004C   22326.19811559  .00001559  00000+0  12896-3 0  9997
2 43113  99.2441  63.1128 0399587  77.2710 287.2829 14.54632902247163
O3B FM15                
1 43231U 18024A   22325.80563697 -.00000008  00000+0  00000+0 0  9993
2 43231   0.0502  12.0288 0003049 230.6535 117.2944  5.00116100 85828
O3B FM16                
1 43232U 18024B   22325.65915700 -.00000008  00000+0  00000+0 0  9993
2 43232   0.0488  16.6409 0003038 226.5054 116.8304  5.00115906 85733
O3B FM14                
1 43233U 18024C   22325.69886950 -.00000008  00000+0  00000+0 0  9992
2 43233   0.0477  17.8464 0002940 228.4108 113.7198  5.00115352 85730
O3B FM13                
1 43234U 18024D   22325.75239898 -.00000008  00000+0  00000+0 0  9993
2 43234   0.0600  10.9263 0003869 233.6967 115.3448  5.00115363 85987
O3B FM20                
1 44112U 19020A   22326.32523431 -.00000008  00000+0  00000+0 0  9999
2 44112   0.0517   8.5916 0003324 239.4672 111.9137  5.00115431 66477
O3B FM19                
1 44113U 19020B   22325.15274214 -.00000008  00000+0  00000+0 0  9992
2 44113   0.0750  11.6059 0002167 256.4673  91.9097  5.00114975 66197
O3B FM17                
1 44114U 19020C   22325.83285331 -.00000008  00000+0  00000+0 0  9990
2 44114   0.0321   9.3386 0003171 233.0856 117.5514  5.00115610 66319
O3B FM18                
1 44115U 19020D   22325.57945906 -.00000008  00000+0  00000+0 0  9993
2 44115   0.0522   8.6837 0002952 232.2307 119.0638  5.00115753 66439
SALSAT                  
1 46495U 20068K   22325.81944618  .00001851  00000+0  13329-3 0  9994
2 46495  97.7456 267.3551 0018108 102.3046 258.0209 15.05331440117855
